ONEWEB-0094             
1 45450U 20020AC  23059.58247646  .00000024  00000+0  29027-4 0  9992
2 45450  87.9186 245.2104 0001548  92.2102 267.9207 13.18137833147677
ONEWEB-0094             
1 45450U 20020AC  23059.88610872  .00000045  00000+0  83301-4 0  9998
2 45450  87.9186 245.1502 0001559  92.3519 267.7792 13.18137693147719
ONEWEB-0094             
1 45450U 20020AC  23060.87291349 -.00000021  00000+0 -86099-4 0  9996
2 45450  87.9188 244.9545 0001530  92.1748 267.9559 13.18137479147845
ONEWEB-0094             
1 45450U 20020AC  23060.94882145 -.00000022  00000+0 -89532-4 0  9990
2 45450  87.9187 244.9394 0001529  92.2335 267.8972 13.18137628147852
ONEWEB-0094             
1 45450U 20020AC  23061.55608556  .00000052  00000+0  99440-4 0  9990
2 45450  87.9188 244.8189 0001516  91.4961 268.6345 13.18137697147934
ONEWEB-0094             
1 45450U 20020AC  23062.23925770  .00000052  00000+0  99711-4 0  9997
2 45450  87.9190 244.6836 0001507  92.3793 267.7512 13.18137989148028
ONEWEB-0094             
1 45450U 20020AC  23062.46698213  .00000038  00000+0  63769-4 0  9999
2 45450  87.9191 244.6385 0001497  92.4330 267.6974 13.18137637148058
ONEWEB-0094             
1 45450U 20020AC  23062.77061390  .00000083  00000+0  17852-3 0  9994
2 45450  87.9192 244.5783 0001504  92.6677 267.4627 13.18138016148094
